start=new Date('2023-03-11T00:00:00.000Z').valueOf();
sats=[{"LAUNCH_DATE":"2022-08-31","OBJECT_TYPE":"PAYLOAD","BSTAR":"0.00025631000000","MEAN_MOTION_DOT":"0.00003236","OBJECT_NAME":"STARLINK-4625","NORAD_CAT_ID":"53683","PERIAPSIS":"561.684","TLE_LINE2":"2 53683  97.6505 311.9121 0001864  63.0772 297.0642 15.01271135 28917","TLE_LINE1":"1 53683U 22105AM  23069.43171733  .00003236  00000-0  25631-3 0  9998","FILE":"3856975","ELEMENT_SET_NO":"999","OBJECT_ID":"2022-105AM","DECAY_DATE":null,"MEAN_MOTION":"15.01271135","MEAN_ELEMENT_THEORY":"SGP4","CLASSIFICATION_TYPE":"U","RA_OF_ASC_NODE":"311.9121","SEMIMAJOR_AXIS":"6941.113","INCLINATION":"97.6505","APOAPSIS":"564.271","EPHEMERIS_TYPE":"0","RCS_SIZE":"LARGE","EPOCH":"2023-03-10T10:21:40.377312","MEAN_ANOMALY":"297.0642","PERIOD":"95.919","REF_FRAME":"TEME","GP_ID":"227819303","ARG_OF_PERICENTER":"63.0772","COUNTRY_CODE":"US","REV_AT_EPOCH":"2891","ECCENTRICITY":"0.00018640","TIME_SYSTEM":"UTC","SITE":"AFWTR","MEAN_MOTION_DDOT":"0.0000000000000","CENTER_NAME":"EARTH"},{"LAUNCH_DATE":"2022-08-31","OBJECT_TYPE":"PAYLOAD","BSTAR":"0.00031180000000","MEAN_MOTION_DOT":"0.00003950","OBJECT_NAME":"STARLINK-4624","PERIAPSIS":"560.649","NORAD_CAT_ID":"53684","FILE":"3856975","TLE_LINE1":"1 53684U 22105AN  23069.94481077  .00003950  00000-0  31180-3 0  9999","ELEMENT_SET_NO":"999","TLE_LINE2":"2 53684  97.6536 312.4318 0003342  95.6698 264.4907 15.01273851 28983","OBJECT_ID":"2022-105AN","MEAN_ELEMENT_THEORY":"SGP4","MEAN_MOTION":"15.01273851","DECAY_DATE":null,"CLASSIFICATION_TYPE":"U","INCLINATION":"97.6536","SEMIMAJOR_AXIS":"6941.104","RA_OF_ASC_NODE":"312.4318","EPHEMERIS_TYPE":"0","APOAPSIS":"565.289","RCS_SIZE":"LARGE","EPOCH":"2023-03-10T22:40:31.650528","MEAN_ANOMALY":"264.4907","REF_FRAME":"TEME","PERIOD":"95.919","GP_ID":"227820053","ARG_OF_PERICENTER":"95.6698","COUNTRY_CODE":"US","REV_AT_EPOCH":"2898","ECCENTRICITY":"0.00033420","TIME_SYSTEM":"UTC","SITE":"AFWTR","MEAN_MOTION_DDOT":"0.0000000000000","CENTER_NAME":"EARTH"},{"CLASSIFICATION_TYPE":"U","MEAN_ELEMENT_THEORY":"SGP4","DECAY_DATE":null,"MEAN_MOTION":"15.01255084","EPHEMERIS_TYPE":"0","APOAPSIS":"564.319","INCLINATION":"97.6545","SEMIMAJOR_AXIS":"6941.162","RA_OF_ASC_NODE":"312.1041","FILE":"3856975","TLE_LINE1":"1 53685U 22105AP  23069.62798109  .00000188  00000-0  19267-4 0  9995","ELEMENT_SET_NO":"999","TLE_LINE2":"2 53685  97.6545 312.1041 0001861 102.0216 258.1217 15.01255084 28945","PERIAPSIS":"561.735","NORAD_CAT_ID":"53685","OBJECT_ID":"2022-105AP","OBJECT_NAME":"STARLINK-4626","OBJECT_TYPE":"PAYLOAD","LAUNCH_DATE":"2022-08-31","MEAN_MOTION_DOT":"0.00000188","BSTAR":"0.00001926700000","MEAN_MOTION_DDOT":"0.0000000000000","SITE":"AFWTR","CENTER_NAME":"EARTH","REV_AT_EPOCH":"2894","COUNTRY_CODE":"US","ARG_OF_PERICENTER":"102.0216","TIME_SYSTEM":"UTC","ECCENTRICITY":"0.00018610","MEAN_ANOMALY":"258.1217","EPOCH":"2023-03-10T15:04:17.566176","GP_ID":"227818801","REF_FRAME":"TEME","PERIOD":"95.920","RCS_SIZE":"LARGE"},{"REV_AT_EPOCH":"2894","COUNTRY_CODE":"US","ARG_OF_PERICENTER":"95.7557","TIME_SYSTEM":"UTC","ECCENTRICITY":"0.00018760","MEAN_MOTION_DDOT":"0.0000000000000","SITE":"AFWTR","CENTER_NAME":"EARTH","RCS_SIZE":"LARGE","MEAN_ANOMALY":"264.3881","EPOCH":"2023-03-10T14:58:55.861824","GP_ID":"227819051","PERIOD":"95.918","REF_FRAME":"TEME","TLE_LINE2":"2 53686  97.6565 312.1067 0001876  95.7557 264.3881 15.01287551 28948","FILE":"3856975","TLE_LINE1":"1 53686U 22105AQ  23069.62425766  .00007317  00000-0  57324-3 0  9998","ELEMENT_SET_NO":"999","NORAD_CAT_ID":"53686","PERIAPSIS":"561.625","OBJECT_ID":"2022-105AQ","CLASSIFICATION_TYPE":"U","MEAN_MOTION":"15.01287551","DECAY_DATE":null,"MEAN_ELEMENT_THEORY":"SGP4","APOAPSIS":"564.229","EPHEMERIS_TYPE":"0","RA_OF_ASC_NODE":"312.1067","SEMIMAJOR_AXIS":"6941.062","INCLINATION":"97.6565","OBJECT_TYPE":"PAYLOAD","LAUNCH_DATE":"2022-08-31","MEAN_MOTION_DOT":"0.00007317","BSTAR":"0.00057324000000","OBJECT_NAME":"STARLINK-4467"},{"EPOCH":"2023-03-10T15:01:36.414624","MEAN_ANOMALY":"286.8282","REF_FRAME":"TEME","PERIOD":"95.919","GP_ID":"227819803","RCS_SIZE":"LARGE","SITE":"AFWTR","MEAN_MOTION_DDOT":"0.0000000000000","CENTER_NAME":"EARTH","ARG_OF_PERICENTER":"73.3131","REV_AT_EPOCH":"2894","COUNTRY_CODE":"US","ECCENTRICITY":"0.00017180","TIME_SYSTEM":"UTC","OBJECT_NAME":"STARLINK-4569","LAUNCH_DATE":"2022-08-31","OBJECT_TYPE":"PAYLOAD","BSTAR":"0.00018148000000","MEAN_MOTION_DOT":"0.00002273","MEAN_ELEMENT_THEORY":"SGP4","MEAN_MOTION":"15.01270566","DECAY_DATE":null,"CLASSIFICATION_TYPE":"U","INCLINATION":"97.6568","SEMIMAJOR_AXIS":"6941.114","RA_OF_ASC_NODE":"312.1011","EPHEMERIS_TYPE":"0","APOAPSIS":"564.172","PERIAPSIS":"561.787","NORAD_CAT_ID":"53687","FILE":"3856975","TLE_LINE1":"1 53687U 22105AR  23069.62611591  .00002273  00000-0  18148-3 0  9999","ELEMENT_SET_NO":"999","TLE_LINE2":"2 53687  97.6568 312.1011 0001718  73.3131 286.8282 15.01270566 28948","OBJECT_ID":"2022-105AR"},{"PERIAPSIS":"561.493","NORAD_CAT_ID":"53688","TLE_LINE1":"1 53688U 22105AS  23069.62056010  .00018661  00000-0  14533-2 0  9990","ELEMENT_SET_NO":"999","FILE":"3856975","TLE_LINE2":"2 53688  97.6562 312.1071 0002152  96.4089 263.7380 15.01268296 28940","OBJECT_ID":"2022-105AS","MEAN_ELEMENT_THEORY":"SGP4","MEAN_MOTION":"15.01268296","DECAY_DATE":null,"CLASSIFICATION_TYPE":"U","INCLINATION":"97.6562","SEMIMAJOR_AXIS":"6941.121","RA_OF_ASC_NODE":"312.1071","EPHEMERIS_TYPE":"0","APOAPSIS":"564.480","LAUNCH_DATE":"2022-08-31","OBJECT_TYPE":"PAYLOAD","BSTAR":"0.00145330000000","MEAN_MOTION_DOT":"0.00018661","OBJECT_NAME":"STARLINK-4571","ARG_OF_PERICENTER":"96.4089","REV_AT_EPOCH":"2894","COUNTRY_CODE":"US","ECCENTRICITY":"0.00021520","TIME_SYSTEM":"UTC","SITE":"AFWTR","MEAN_MOTION_DDOT":"0.0000000000000","CENTER_NAME":"EARTH","RCS_SIZE":"LARGE","EPOCH":"2023-03-10T14:53:36.392640","MEAN_ANOMALY":"263.7380","REF_FRAME":"TEME","PERIOD":"95.919","GP_ID":"227819554"},{"ARG_OF_PERICENTER":"91.0071","COUNTRY_CODE":"US","REV_AT_EPOCH":"2891","ECCENTRICITY":"0.00022270","TIME_SYSTEM":"UTC","SITE":"AFWTR","MEAN_MOTION_DDOT":"0.0000000000000","CENTER_NAME":"EARTH","RCS_SIZE":"LARGE","EPOCH":"2023-03-10T10:08:20.277024","MEAN_ANOMALY":"269.1409","PERIOD":"95.919","REF_FRAME":"TEME","GP_ID":"227818302","NORAD_CAT_ID":"53689","PERIAPSIS":"561.441","TLE_LINE2":"2 53689  97.6550 311.9123 0002227  91.0071 269.1409 15.01267980 28916","TLE_LINE1":"1 53689U 22105AT  23069.42245691  .00001497  00000-0  12109-3 0  9991","FILE":"3856975","ELEMENT_SET_NO":"999","OBJECT_ID":"2022-105AT","MEAN_MOTION":"15.01267980","DECAY_DATE":null,"MEAN_ELEMENT_THEORY":"SGP4","CLASSIFICATION_TYPE":"U","RA_OF_ASC_NODE":"311.9123","SEMIMAJOR_AXIS":"6941.122","INCLINATION":"97.6550","APOAPSIS":"564.533","EPHEMERIS_TYPE":"0","LAUNCH_DATE":"2022-08-31","OBJECT_TYPE":"PAYLOAD","BSTAR":"0.00012109000000","MEAN_MOTION_DOT":"0.00001497","OBJECT_NAME":"STARLINK-4562"},{"CENTER_NAME":"EARTH","SITE":"AFWTR","MEAN_MOTION_DDOT":"0.0000000000000","ECCENTRICITY":"0.00026220","TIME_SYSTEM":"UTC","ARG_OF_PERICENTER":"98.0007","REV_AT_EPOCH":"2891","COUNTRY_CODE":"US","REF_FRAME":"TEME","PERIOD":"95.918","GP_ID":"227818552","EPOCH":"2023-03-10T10:03:00.192672","MEAN_ANOMALY":"262.1515","RCS_SIZE":"LARGE","INCLINATION":"97.6555","RA_OF_ASC_NODE":"311.9099","SEMIMAJOR_AXIS":"6941.095","EPHEMERIS_TYPE":"0","APOAPSIS":"564.780","MEAN_ELEMENT_THEORY":"SGP4","DECAY_DATE":null,"MEAN_MOTION":"15.01276769","CLASSIFICATION_TYPE":"U","OBJECT_ID":"2022-105AU","PERIAPSIS":"561.140","NORAD_CAT_ID":"53690","TLE_LINE1":"1 53690U 22105AU  23069.41875223  .00005931  00000-0  46572-3 0  9990","FILE":"3856975","ELEMENT_SET_NO":"999","TLE_LINE2":"2 53690  97.6555 311.9099 0002622  98.0007 262.1515 15.01276769 28916","OBJECT_NAME":"STARLINK-4570","BSTAR":"0.00046572000000","MEAN_MOTION_DOT":"0.00005931","LAUNCH_DATE":"2022-08-31","OBJECT_TYPE":"PAYLOAD"},{"RCS_SIZE":"LARGE","MEAN_ANOMALY":"260.3892","EPOCH":"2023-03-10T10:03:21.097152","GP_ID":"227819304","PERIOD":"95.919","REF_FRAME":"TEME","REV_AT_EPOCH":"2891","COUNTRY_CODE":"US","ARG_OF_PERICENTER":"99.7550","TIME_SYSTEM":"UTC","ECCENTRICITY":"0.00019260","MEAN_MOTION_DDOT":"0.0000000000000","SITE":"AFWTR","CENTER_NAME":"EARTH","OBJECT_TYPE":"PAYLOAD","LAUNCH_DATE":"2022-08-31","MEAN_MOTION_DOT":"0.00002166","BSTAR":"0.00017312000000","OBJECT_NAME":"STARLINK-4560","TLE_LINE2":"2 53691  97.6542 311.9110 0001926  99.7550 260.3892 15.01274357 28913","ELEMENT_SET_NO":"999","TLE_LINE1":"1 53691U 22105AV  23069.41899418  .00002166  00000-0  17312-3 0  9990","FILE":"3856975","NORAD_CAT_ID":"53691","PERIAPSIS":"561.631","OBJECT_ID":"2022-105AV","CLASSIFICATION_TYPE":"U","MEAN_MOTION":"15.01274357","DECAY_DATE":null,"MEAN_ELEMENT_THEORY":"SGP4","APOAPSIS":"564.304","EPHEMERIS_TYPE":"0","RA_OF_ASC_NODE":"311.9110","SEMIMAJOR_AXIS":"6941.103","INCLINATION":"97.6542"},{"RCS_SIZE":"LARGE","PERIOD":"95.919","REF_FRAME":"TEME","GP_ID":"227820054","EPOCH":"2023-03-10T10:00:20.404512","MEAN_ANOMALY":"261.9278","ECCENTRICITY":"0.00025670","TIME_SYSTEM":"UTC","ARG_OF_PERICENTER":"98.2237","COUNTRY_CODE":"US","REV_AT_EPOCH":"2891","CENTER_NAME":"EARTH","SITE":"AFWTR","MEAN_MOTION_DDOT":"0.0000000000000","BSTAR":"0.00019831000000","MEAN_MOTION_DOT":"0.00002490","LAUNCH_DATE":"2022-08-31","OBJECT_TYPE":"PAYLOAD","OBJECT_NAME":"STARLINK-4572","OBJECT_ID":"2022-105AW","NORAD_CAT_ID":"53692","PERIAPSIS":"561.193","TLE_LINE2":"2 53692  97.6542 311.9089 0002567  98.2237 261.9278 15.01272009 28914","TLE_LINE1":"1 53692U 22105AW  23069.41690283  .00002490  00000-0  19831-3 0  9998","ELEMENT_SET_NO":"999","FILE":"3856975","SEMIMAJOR_AXIS":"6941.110","RA_OF_ASC_NODE":"311.9089","INCLINATION":"97.6542","APOAPSIS":"564.757","EPHEMERIS_TYPE":"0","DECAY_DATE":null,"MEAN_MOTION":"15.01272009","MEAN_ELEMENT_THEORY":"SGP4","CLASSIFICATION_TYPE":"U"}];
